[{"OBJECT_NAME":"KANOPUS-V 4","OBJECT_ID":"2018-014B","EPOCH":"2026-03-09T22:48:00.889056","MEAN_MOTION":15.22813706,"ECCENTRICITY":0.00013304,"INCLINATION":97.365,"RA_OF_ASC_NODE":336.6243,"ARG_OF_PERICENTER":69.4905,"MEAN_ANOMALY":290.6475,"EPHEMERIS_TYPE":0,"CLASSIFICATION_TYPE":"U","NORAD_CAT_ID":43181,"ELEMENT_SET_NO":999,"REV_AT_EPOCH":44963,"BSTAR":0.00051006309,"MEAN_MOTION_DOT":0.00011868,"MEAN_MOTION_DDOT":0},{"OBJECT_NAME":"STARLINK-30602","OBJECT_ID":"2023-160G","EPOCH":"2026-03-09T01:02:16.046592","MEAN_MOTION":15.22911342,"ECCENTRICITY":8.15e-5,"INCLINATION":43.0026,"RA_OF_ASC_NODE":81.8046,"ARG_OF_PERICENTER":268.3637,"MEAN_ANOMALY":91.712,"EPHEMERIS_TYPE":0,"CLASSIFICATION_TYPE":"U","NORAD_CAT_ID":58081,"ELEMENT_SET_NO":999,"REV_AT_EPOCH":13284,"BSTAR":0.00020841055,"MEAN_MOTION_DOT":4.737e-5,"MEAN_MOTION_DDOT":0}]
